{"fetched_at":"2026-05-13T14:30:56Z","count":7964,"tles":[{"name":"STARLINK-11634 [DTC]","line1":"1 63673U 25085K   26133.04343163  .00136570  00000+0  10493-2 0  9994","line2":"2 63673  42.9992 250.4552 0000904 290.6921  69.3849 15.70866240 60360","category":"Starlink"},{"name":"CZ-3C DEB","line1":"1 40170U 10057Y   26103.35783781 -.00000142  00000+0 -18423-2 0  9997","line2":"2 40170  19.7432 129.0172 7133863 100.4620   1.4046  2.23765147104272","category":"Other"},{"name":"SENTINEL-6B","line1":"1 66514U 25264A   26133.18588753 -.00000057  00000+0  17475-4 0  9991","line2":"2 66514  66.0406 207.8763 0008014 269.4229  90.5868 12.80931035 22682","category":"Other"},{"name":"UNKNOWN","line1":"1 81247U 81053    23360.56997722  .00124189  00000+0  13311-1 0  9994","line2":"2 81247  83.2342 102.0278 0022399 250.5314 109.3485 14.87813078532660","category":"Other"},{"name":"COSMOS 2251 DEB","line1":"1 33770U 93036T   23178.63755885  .00016277  00000+0  25974-2 0  9990","line2":"2 33770  74.0253 241.9414 0022162 175.8662 308.0090 14.71735908759888","category":"Other"},{"name":"ONEWEB-0256","line1":"1 48974U 21060H   26133.03571714  .00000004  00000+0 -23470-4 0  9998","line2":"2 48974  87.9092 235.7651 0002073 102.0429 258.0934 13.16595131235004","category":"Other"},{"name":"PELICAN-1","line1":"1 58296U 23174AS  26132.81256035  .00035352  00000+0  26479-3 0  9999","line2":"2 58296  97.4005 230.9688 0000376  46.7579 313.3716 15.72585493140601","category":"Other"},{"name":"STARLINK-11742 [DTC]","line1":"1 64377U 25127H   26133.18611353  .00137391  00000+0  10555-2 0  9998","line2":"2 64377  43.0004  55.9836 0002099 260.7037  99.3593 15.70864170 53646","category":"Starlink"},{"name":"DISKSAT C","line1":"1 67219U 25305A   26133.10228326  .00004575  00000+0  29920-3 0  9994","line2":"2 67219  45.0029 269.2368 0006069 312.2156  47.8205 15.09089504 22027","category":"Other"},{"name":"SL-12 R/B(2)","line1":"1 23171U 94038D   26104.59324602 -.00000269  00000+0  00000+0 0  9998","line2":"2 23171  14.2226 354.4083 0022589 146.9327  31.6892  0.99429157115381","category":"Other"},{"name":"STARLINK-5436","line1":"1 54795U 22175AP  26132.62253769  .00000299  00000+0  36889-4 0  9998","line2":"2 54795  53.2172 101.9414 0001361  87.5752 272.5396 15.08835491189788","category":"Starlink"},{"name":"STARLINK-32342","line1":"1 61217U 24171T   26133.12242038  .00000457  00000+0  27547-4 0  9993","line2":"2 61217  53.1614  23.1445 0001119  95.8703 264.2426 15.30195407 93140","category":"Starlink"},{"name":"IRIDIUM 33 DEB","line1":"1 36492U 97051WJ  23178.63805031  .00027100  00000+0  35853-2 0  9998","line2":"2 36492  86.4149  54.6043 0008325 128.4874 231.7095 14.79799007744939","category":"Other"},{"name":"TIANPING 2C","line1":"1 52156U 22032D   26133.18755100  .00002475  00000+0  15257-3 0  9990","line2":"2 52156  97.5858 185.8366 0004682 276.5874  83.4822 15.10885428225568","category":"Other"},{"name":"STARLINK-31643","line1":"1 59388U 24062Q   26132.92308764  .00000640  00000+0  33736-4 0  9995","line2":"2 59388  53.1622 317.4576 0001198  80.8457 279.2679 15.30194134119507","category":"Starlink"},{"name":"STARLINK-35187","line1":"1 65521U 25200B   26133.16097470  .00003941  00000+0  27707-3 0  9999","line2":"2 65521  97.5042 203.2118 0001388 119.5320 240.6046 15.05657241 38836","category":"Starlink"},{"name":"STARLINK-37125","line1":"1 68276U 26055Q   26132.93075631  .00023020  00000+0  53666-3 0  9990","line2":"2 68276  53.1599  20.3653 0000999  92.5736 267.5385 15.42170526  9773","category":"Starlink"},{"name":"FENGYUN 1C DEB","line1":"1 30174U 99025UF  26104.40425480  .00021018  00000+0  19923-2 0  9997","line2":"2 30174  98.7783 271.0332 0012266  12.7860   9.8940 14.93554980  1917","category":"Weather"},{"name":"STARLINK-1634","line1":"1 46152U 20057AM  23362.14973343  .00015013  00000+0  10244-2 0  9994","line2":"2 46152  53.0540 319.3972 0001535  77.6851 282.4310 15.06408711185769","category":"Starlink"},{"name":"STARLINK-5885","line1":"1 56352U 23058AM  26133.03301321 -.00001146  00000+0 -75322-4 0  9993","line2":"2 56352  97.4968 133.3307 0002767  94.6177 265.5366 15.05657938167806","category":"Starlink"},{"name":"KUIPER-00023","line1":"1 63737U 25088P   26132.80289221  .00014181  00000+0  18886-2 0  9992","line2":"2 63737  51.9000 182.0380 0000622  45.2401 314.8612 14.79856656 57252","category":"Other"},{"name":"STARLINK-35872","line1":"1 66580U 25268Z   26132.97964175  .00014504  00000+0  53543-3 0  9996","line2":"2 66580  43.0037 343.8484 0000803 244.7763 115.3005 15.27586718 27792","category":"Starlink"},{"name":"UNKNOWN","line1":"1 81798U          23306.49774945  .09806277  16092+0  41109-1 0  9998","line2":"2 81798  73.9553 100.8508 0022270 350.0613  10.0177 15.90829160475788","category":"Other"},{"name":"IRIDIUM 33 DEB","line1":"1 33881U 97051BA  26104.88681891  .00008152  00000+0  16456-2 0  9996","line2":"2 33881  86.3830  53.0419 0057873 112.7207 317.9616 14.60251426892952","category":"Other"},{"name":"ONEWEB-0287","line1":"1 49077U 21075C   26132.93227049  .00000006  00000+0 -17269-4 0  9997","line2":"2 49077  87.9166  12.8749 0001915  95.5963 264.5387 13.17649697228987","category":"Other"},{"name":"STARLINK-30909","line1":"1 58363U 23177N   26133.00483647  .00002488  00000+0  99901-4 0  9995","line2":"2 58363  43.0032 347.3833 0002490 266.9530  93.1037 15.27581065138067","category":"Starlink"},{"name":"STARLINK-34453","line1":"1 64441U 25130D   26133.02431216  .00011380  00000+0  34742-3 0  9999","line2":"2 64441  53.1595 149.6674 0001203  73.2903 286.8231 15.34400675 50556","category":"Starlink"},{"name":"LOBACHEVSKY (RS83S)","line1":"1 67284U 25313AN  26132.94033382  .00003588  00000+0  15747-3 0  9997","line2":"2 67284  97.3930 208.1896 0012229 120.5007 239.7438 15.22522792 20594","category":"Other"},{"name":"STARLINK-5398","line1":"1 54866U 22177AY  26132.69229756  .00001520  00000+0  64746-4 0  9996","line2":"2 54866  43.0043 119.7229 0001899 273.2775  86.7859 15.27578814186888","category":"Starlink"},{"name":"STARLINK-32030","line1":"1 61513U 24183E   26133.17458625  .00000307  00000+0  22503-4 0  9992","line2":"2 61513  53.1599 203.0487 0001162  82.6138 277.4995 15.30189192 89528","category":"Starlink"},{"name":"FENGYUN 1C DEB","line1":"1 36703U 99025DZZ 23178.55585479  .00005536  00000+0  30973-2 0  9995","line2":"2 36703  97.8366  87.4633 0122494  54.3733 306.8776 14.07309148786878","category":"Weather"},{"name":"STARLINK-3764","line1":"1 52280U 22041V   26132.84336217  .00000172  00000+0  28879-4 0  9991","line2":"2 52280  53.2156 181.1226 0001127  81.3179 278.7941 15.08833272224052","category":"Starlink"},{"name":"STARLINK-34933","line1":"1 65253U 25179U   26132.08063443  .00002941  00000+0  20785-3 0  9997","line2":"2 65253  97.5067 175.2497 0001183 153.0459 207.0830 15.05656615 41355","category":"Starlink"},{"name":"STARLINK-33608","line1":"1 63425U 25065AC  26132.92752409  .00008522  00000+0  31873-3 0  9991","line2":"2 63425  43.0004 104.2745 0000831 269.3586  90.7170 15.27590612 62669","category":"Starlink"},{"name":"STARLINK-5490","line1":"1 75490C 23094AN  23189.76784722  .00437308  00000-0  62973-3 0  1895","line2":"2 75490  42.9956 313.5231 0076834 152.3941  56.9291 15.98231537    10","category":"Starlink"},{"name":"FENGYUN 1C DEB","line1":"1 33731U 99025DHU 26104.03908862  .00000694  00000+0  50429-3 0  9992","line2":"2 33731  99.4323 134.2303 0129289  84.4546 277.1345 13.95920246921559","category":"Weather"},{"name":"KSF1-C","line1":"1 48942U 21059BR  23362.45064145  .00140932  00000+0  13709-2 0  9999","line2":"2 48942  97.6060 151.9939 0007501 284.3663  75.6764 15.65798878139595","category":"Other"},{"name":"IRIS-C2","line1":"1 58269U 23174P   23362.15152986  .00014736  00000+0  79381-3 0  9991","line2":"2 58269  97.4824  74.3106 0013640 115.6439 244.6204 15.14829862  7623","category":"Other"},{"name":"CMS-03 (GSAT-7R)","line1":"1 66311U 25249B   26133.19272633 -.00000064  00000+0  00000+0 0  9996","line2":"2 66311   0.0191 254.7734 0002417 138.9696 340.5766  1.00271336  1991","category":"Other"},{"name":"AEROCUBE 12B","line1":"1 43557U 18046D   23226.12489218  .07585911  12356-4  72153-3 0  9991","line2":"2 43557  51.6014 241.6051 0001928 310.4851  49.6006 16.37739846284928","category":"Other"},{"name":"STARLINK-5444","line1":"1 54768U 22175L   26133.20501697  .00000452  00000+0  46484-4 0  9992","line2":"2 54768  53.2164  99.8851 0001524  72.2731 287.8428 15.08827214189866","category":"Starlink"},{"name":"STARLINK-1604","line1":"1 46122U 20057F   23362.04653284  .00013078  00000+0  89497-3 0  9995","line2":"2 46122  53.0547 279.8230 0001489  99.2414 260.8744 15.06412334186312","category":"Starlink"},{"name":"STARLINK-5981","line1":"1 56325U 23058J   26132.96101762 -.00001449  00000+0 -96291-4 0  9995","line2":"2 56325  97.5008 133.2776 0001668  85.1521 274.9896 15.05653795167795","category":"Starlink"},{"name":"INTELSAT 16 (IS-16)","line1":"1 36397U 10006A   26133.11965700 -.00000232  00000+0  00000+0 0  9995","line2":"2 36397   0.0145 291.1584 0002414 157.9956 108.6187  1.00271530 59300","category":"Other"},{"name":"STARLINK-3743","line1":"1 52118U 22029AG  26133.05587367 -.00000040  00000+0  15545-4 0  9996","line2":"2 52118  53.2156 150.1691 0001249  92.1193 267.9942 15.08839625230501","category":"Starlink"},{"name":"STARLINK-31549","line1":"1 59360U 24060N   26132.62126786 -.00001485  00000+0 -44425-4 0  9999","line2":"2 59360  43.0034 258.5238 0001328 252.8992 107.1715 15.27585888119845","category":"Starlink"},{"name":"CZ-6A DEB","line1":"1 60891U 24140KW  24249.27428901  .00003874  00000+0  21205-2 0  9992","line2":"2 60891  89.3586 349.4193 0089324 135.4897 225.3509 14.09730682  2447","category":"Other"},{"name":"STARLINK-35688","line1":"1 67019U 25293S   26133.18525133  .00016822  00000+0  14122-2 0  9997","line2":"2 67019  70.0003 292.0370 0003361 266.1104  93.9671 14.98386047 24541","category":"Starlink"}]}